IRIDIUM 171             
1 43929U 19002H   25086.57304520  .00000193  00000+0  62040-4 0  9994
2 43929  86.4052 180.4815 0001873 105.0271 255.1132 14.34213964324944
IRIDIUM 170             
1 43930U 19002J   25085.86970134  .00000365  00000+0  53898-4 0  9999
2 43930  86.6167 180.5454 0001889  94.6979 265.4454 14.72260022333445
IRIDIUM 167             
1 43931U 19002K   25085.86901051  .00000738  00000+0  25651-3 0  9991
2 43931  86.4044 180.5370 0001645  95.3833 264.7551 14.34213060324844
IRIDIUM 181             
1 56726U 23068S   25085.51585374  .00000159  00000+0  41243-4 0  9995
2 56726  86.4485 243.7482 0001684 107.7631 252.3754 14.43282821 97860
IRIDIUM 177             
1 56727U 23068T   25086.20558299  .00005230  00000+0  68458-3 0  9990
2 56727  86.2039 181.0128 0001756 109.0646 251.0766 14.80234211100243
IRIDIUM 174             
1 56728U 23068U   25085.86210245  .00003769  00000+0  49288-3 0  9993
2 56728  86.2036 181.2999 0002666 103.9478 256.2039 14.80197602100192
IRIDIUM 178             
1 56729U 23068V   25085.85664956  .00005064  00000+0  66307-3 0  9996
2 56729  86.6584 212.1626 0002100 104.2867 255.8588 14.80215837100190
IRIDIUM 179             
1 56730U 23068W   25085.78364652  .00005812  00000+0  76199-3 0  9991
2 56730  86.6812 219.8200 0002376  82.0305 278.1186 14.80182108100188
